start=new Date('2022-02-09T00:00:00.000Z').valueOf();
sats=[{"SITE":"AFETR","EPOCH":"2022-02-08T20:00:01.999872","NORAD_CAT_ID":"50835","EPHEMERIS_TYPE":"0","LAUNCH_DATE":"2022-01-06","TLE_LINE1":"1 50835U 22001AJ  22039.83335648 -.00656710  00000-0 -70230-2 0  9993","FILE":"3295407","ARG_OF_PERICENTER":"31.7236","MEAN_ANOMALY":"315.1699","INCLINATION":"53.2174","REF_FRAME":"TEME","RA_OF_ASC_NODE":"36.1549","TIME_SYSTEM":"UTC","DECAY_DATE":null,"OBJECT_NAME":"STARLINK-3310","MEAN_ELEMENT_THEORY":"SGP4","RCS_SIZE":"LARGE","APOAPSIS":"373.520","CLASSIFICATION_TYPE":"U","MEAN_MOTION_DOT":"-0.00656710","SEMIMAJOR_AXIS":"6750.576","TLE_LINE2":"2 50835  53.2174  36.1549 0001599  31.7236 315.1699 15.65278181  6474","ECCENTRICITY":"0.00015990","OBJECT_TYPE":"PAYLOAD","ELEMENT_SET_NO":"999","CENTER_NAME":"EARTH","MEAN_MOTION":"15.65278181","COUNTRY_CODE":"US","GP_ID":"195581378","PERIOD":"91.996","BSTAR":"-0.00702300000000","REV_AT_EPOCH":"647","MEAN_MOTION_DDOT":"0.0000000000000","OBJECT_ID":"2022-001AJ","PERIAPSIS":"371.361"},{"REF_FRAME":"TEME","RA_OF_ASC_NODE":"36.1604","TIME_SYSTEM":"UTC","DECAY_DATE":null,"MEAN_ELEMENT_THEORY":"SGP4","OBJECT_NAME":"STARLINK-3330","SITE":"AFETR","EPOCH":"2022-02-08T20:00:01.999872","EPHEMERIS_TYPE":"0","NORAD_CAT_ID":"50836","LAUNCH_DATE":"2022-01-06","TLE_LINE1":"1 50836U 22001AK  22039.83335648 -.00657114  00000-0 -65276-2 0  9997","FILE":"3295407","ARG_OF_PERICENTER":"35.8859","MEAN_ANOMALY":"342.0037","INCLINATION":"53.2174","OBJECT_TYPE":"PAYLOAD","ECCENTRICITY":"0.00014350","ELEMENT_SET_NO":"999","CENTER_NAME":"EARTH","RCS_SIZE":"LARGE","APOAPSIS":"368.171","MEAN_MOTION_DOT":"-0.00657114","CLASSIFICATION_TYPE":"U","SEMIMAJOR_AXIS":"6745.338","TLE_LINE2":"2 50836  53.2174  36.1604 0001435  35.8859 342.0037 15.67101664  6470","PERIOD":"91.889","BSTAR":"-0.00652760000000","REV_AT_EPOCH":"647","MEAN_MOTION_DDOT":"0.0000000000000","MEAN_MOTION":"15.67101664","COUNTRY_CODE":"US","GP_ID":"195581369","OBJECT_ID":"2022-001AK","PERIAPSIS":"366.235"},{"GP_ID":"195550431","MEAN_MOTION":"15.73219452","COUNTRY_CODE":"US","BSTAR":"0.00015547000000","REV_AT_EPOCH":"370","MEAN_MOTION_DDOT":"0.0000000000000","PERIOD":"91.532","OBJECT_ID":"2022-001AL","PERIAPSIS":"348.469","FILE":"3295096","ARG_OF_PERICENTER":"24.5788","MEAN_ANOMALY":"59.5827","INCLINATION":"53.2149","EPOCH":"2022-02-08T14:00:01.000224","SITE":"AFETR","EPHEMERIS_TYPE":"0","NORAD_CAT_ID":"50837","TLE_LINE1":"1 50837U 22001AL  22039.58334491  .00021272  00000-0  15547-3 0  9990","LAUNCH_DATE":"2022-01-06","DECAY_DATE":null,"OBJECT_NAME":"STARLINK-3318","MEAN_ELEMENT_THEORY":"SGP4","REF_FRAME":"TEME","RA_OF_ASC_NODE":"37.2745","TIME_SYSTEM":"UTC","TLE_LINE2":"2 50837  53.2149  37.2745 0001837  24.5788  59.5827 15.73219452  3705","APOAPSIS":"350.941","RCS_SIZE":"LARGE","CLASSIFICATION_TYPE":"U","MEAN_MOTION_DOT":"0.00021272","SEMIMAJOR_AXIS":"6727.840","ELEMENT_SET_NO":"999","CENTER_NAME":"EARTH","ECCENTRICITY":"0.00018370","OBJECT_TYPE":"PAYLOAD"},{"MEAN_MOTION_DOT":"-0.00656951","CLASSIFICATION_TYPE":"U","SEMIMAJOR_AXIS":"6748.559","RCS_SIZE":"LARGE","APOAPSIS":"371.379","TLE_LINE2":"2 50838  53.2174  36.1506 0001415  37.8341 326.5662 15.65979900  6429","ECCENTRICITY":"0.00014150","OBJECT_TYPE":"PAYLOAD","ELEMENT_SET_NO":"999","CENTER_NAME":"EARTH","EPHEMERIS_TYPE":"0","NORAD_CAT_ID":"50838","TLE_LINE1":"1 50838U 22001AM  22039.83335648 -.00656951  00000-0 -68302-2 0  9990","LAUNCH_DATE":"2022-01-06","SITE":"AFETR","EPOCH":"2022-02-08T20:00:01.999872","MEAN_ANOMALY":"326.5662","INCLINATION":"53.2174","FILE":"3295407","ARG_OF_PERICENTER":"37.8341","TIME_SYSTEM":"UTC","REF_FRAME":"TEME","RA_OF_ASC_NODE":"36.1506","OBJECT_NAME":"STARLINK-3322","MEAN_ELEMENT_THEORY":"SGP4","DECAY_DATE":null,"PERIAPSIS":"369.469","OBJECT_ID":"2022-001AM","MEAN_MOTION":"15.65979900","COUNTRY_CODE":"US","GP_ID":"195581375","PERIOD":"91.955","REV_AT_EPOCH":"642","MEAN_MOTION_DDOT":"0.0000000000000","BSTAR":"-0.00683020000000"},{"TIME_SYSTEM":"UTC","REF_FRAME":"TEME","RA_OF_ASC_NODE":"36.1531","MEAN_ELEMENT_THEORY":"SGP4","OBJECT_NAME":"STARLINK-3320","DECAY_DATE":null,"NORAD_CAT_ID":"50839","EPHEMERIS_TYPE":"0","TLE_LINE1":"1 50839U 22001AN  22039.83335648 -.00656763  00000-0 -69259-2 0  9994","LAUNCH_DATE":"2022-01-06","SITE":"AFETR","EPOCH":"2022-02-08T20:00:01.999872","MEAN_ANOMALY":"304.8408","INCLINATION":"53.2174","FILE":"3295407","ARG_OF_PERICENTER":"50.9642","OBJECT_TYPE":"PAYLOAD","ECCENTRICITY":"0.00012110","ELEMENT_SET_NO":"999","CENTER_NAME":"EARTH","MEAN_MOTION_DOT":"-0.00656763","CLASSIFICATION_TYPE":"U","SEMIMAJOR_AXIS":"6749.567","APOAPSIS":"372.250","RCS_SIZE":"LARGE","TLE_LINE2":"2 50839  53.2174  36.1531 0001211  50.9642 304.8408 15.65629021  6492","PERIOD":"91.976","MEAN_MOTION_DDOT":"0.0000000000000","REV_AT_EPOCH":"649","BSTAR":"-0.00692590000000","MEAN_MOTION":"15.65629021","COUNTRY_CODE":"US","GP_ID":"195581371","PERIAPSIS":"370.615","OBJECT_ID":"2022-001AN"},{"OBJECT_ID":"2022-001AP","PERIAPSIS":"370.153","BSTAR":"-0.00689340000000","MEAN_MOTION_DDOT":"0.0000000000000","REV_AT_EPOCH":"650","PERIOD":"91.969","GP_ID":"195581383","COUNTRY_CODE":"US","MEAN_MOTION":"15.65745942","CENTER_NAME":"EARTH","ELEMENT_SET_NO":"999","ECCENTRICITY":"0.00013970","OBJECT_TYPE":"PAYLOAD","TLE_LINE2":"2 50840  53.2174  36.1523 0001397  39.0094 319.6958 15.65745942  6506","RCS_SIZE":"LARGE","APOAPSIS":"372.039","SEMIMAJOR_AXIS":"6749.231","MEAN_MOTION_DOT":"-0.00656802","CLASSIFICATION_TYPE":"U","DECAY_DATE":null,"MEAN_ELEMENT_THEORY":"SGP4","OBJECT_NAME":"STARLINK-3295","RA_OF_ASC_NODE":"36.1523","REF_FRAME":"TEME","TIME_SYSTEM":"UTC","ARG_OF_PERICENTER":"39.0094","FILE":"3295408","INCLINATION":"53.2174","MEAN_ANOMALY":"319.6958","SITE":"AFETR","EPOCH":"2022-02-08T20:00:01.999872","LAUNCH_DATE":"2022-01-06","TLE_LINE1":"1 50840U 22001AP  22039.83335648 -.00656802  00000-0 -68934-2 0  9999","NORAD_CAT_ID":"50840","EPHEMERIS_TYPE":"0"},{"LAUNCH_DATE":"2022-01-06","TLE_LINE1":"1 50841U 22001AQ  22039.83335648 -.00656840  00000-0 -69917-2 0  9994","EPHEMERIS_TYPE":"0","NORAD_CAT_ID":"50841","SITE":"AFETR","EPOCH":"2022-02-08T20:00:01.999872","INCLINATION":"53.2174","MEAN_ANOMALY":"314.7361","ARG_OF_PERICENTER":"35.1630","FILE":"3295408","TIME_SYSTEM":"UTC","RA_OF_ASC_NODE":"36.1544","REF_FRAME":"TEME","OBJECT_NAME":"STARLINK-3300","MEAN_ELEMENT_THEORY":"SGP4","DECAY_DATE":null,"SEMIMAJOR_AXIS":"6750.239","MEAN_MOTION_DOT":"-0.00656840","CLASSIFICATION_TYPE":"U","RCS_SIZE":"LARGE","APOAPSIS":"373.129","TLE_LINE2":"2 50841  53.2174  36.1544 0001518  35.1630 314.7361 15.65395189  6528","OBJECT_TYPE":"PAYLOAD","ECCENTRICITY":"0.00015180","CENTER_NAME":"EARTH","ELEMENT_SET_NO":"999","COUNTRY_CODE":"US","MEAN_MOTION":"15.65395189","GP_ID":"195581387","PERIOD":"91.990","REV_AT_EPOCH":"652","MEAN_MOTION_DDOT":"0.0000000000000","BSTAR":"-0.00699170000000","PERIAPSIS":"371.080","OBJECT_ID":"2022-001AQ"},{"OBJECT_ID":"2022-001AR","PERIAPSIS":"369.744","GP_ID":"195581380","COUNTRY_CODE":"US","MEAN_MOTION":"15.65862935","BSTAR":"-0.00686220000000","REV_AT_EPOCH":"650","MEAN_MOTION_DDOT":"0.0000000000000","PERIOD":"91.962","TLE_LINE2":"2 50842  53.2174  36.1515 0001505  34.6552 326.9151 15.65862935  6508","APOAPSIS":"371.776","RCS_SIZE":"LARGE","SEMIMAJOR_AXIS":"6748.895","CLASSIFICATION_TYPE":"U","MEAN_MOTION_DOT":"-0.00656935","CENTER_NAME":"EARTH","ELEMENT_SET_NO":"999","ECCENTRICITY":"0.00015050","OBJECT_TYPE":"PAYLOAD","ARG_OF_PERICENTER":"34.6552","FILE":"3295408","INCLINATION":"53.2174","MEAN_ANOMALY":"326.9151","EPOCH":"2022-02-08T20:00:01.999872","SITE":"AFETR","TLE_LINE1":"1 50842U 22001AR  22039.83335648 -.00656935  00000-0 -68622-2 0  9992","LAUNCH_DATE":"2022-01-06","EPHEMERIS_TYPE":"0","NORAD_CAT_ID":"50842","DECAY_DATE":null,"OBJECT_NAME":"STARLINK-3302","MEAN_ELEMENT_THEORY":"SGP4","RA_OF_ASC_NODE":"36.1515","REF_FRAME":"TEME","TIME_SYSTEM":"UTC"},{"OBJECT_ID":"2022-001AS","PERIAPSIS":"371.723","GP_ID":"195580640","COUNTRY_CODE":"US","MEAN_MOTION":"15.65161267","BSTAR":"-0.00705580000000","MEAN_MOTION_DDOT":"0.0000000000000","REV_AT_EPOCH":"641","PERIOD":"92.003","TLE_LINE2":"2 50843  53.2174  36.1553 0001561  33.3005 310.5521 15.65161267  6412","APOAPSIS":"373.831","RCS_SIZE":"LARGE","SEMIMAJOR_AXIS":"6750.912","MEAN_MOTION_DOT":"-0.00656680","CLASSIFICATION_TYPE":"U","CENTER_NAME":"EARTH","ELEMENT_SET_NO":"999","OBJECT_TYPE":"PAYLOAD","ECCENTRICITY":"0.00015610","ARG_OF_PERICENTER":"33.3005","FILE":"3295363","INCLINATION":"53.2174","MEAN_ANOMALY":"310.5521","EPOCH":"2022-02-08T20:00:01.999872","SITE":"AFETR","TLE_LINE1":"1 50843U 22001AS  22039.83335648 -.00656680  00000-0 -70558-2 0  9991","LAUNCH_DATE":"2022-01-06","EPHEMERIS_TYPE":"0","NORAD_CAT_ID":"50843","DECAY_DATE":null,"MEAN_ELEMENT_THEORY":"SGP4","OBJECT_NAME":"STARLINK-3325","RA_OF_ASC_NODE":"36.1553","REF_FRAME":"TEME","TIME_SYSTEM":"UTC"},{"PERIAPSIS":"368.845","OBJECT_ID":"2022-001AT","COUNTRY_CODE":"US","MEAN_MOTION":"15.66213775","GP_ID":"195580630","PERIOD":"91.941","REV_AT_EPOCH":"650","MEAN_MOTION_DDOT":"0.0000000000000","BSTAR":"-0.00676680000000","SEMIMAJOR_AXIS":"6747.887","CLASSIFICATION_TYPE":"U","MEAN_MOTION_DOT":"-0.00657024","APOAPSIS":"370.659","RCS_SIZE":"LARGE","TLE_LINE2":"2 50844  53.2174  36.1486 0001344  41.7145 328.2403 15.66213775  6503","OBJECT_TYPE":"PAYLOAD","ECCENTRICITY":"0.00013440","CENTER_NAME":"EARTH","ELEMENT_SET_NO":"999","LAUNCH_DATE":"2022-01-06","TLE_LINE1":"1 50844U 22001AT  22039.83335648 -.00657024  00000-0 -67668-2 0  9993","NORAD_CAT_ID":"50844","EPHEMERIS_TYPE":"0","EPOCH":"2022-02-08T20:00:01.999872","SITE":"AFETR","INCLINATION":"53.2174","MEAN_ANOMALY":"328.2403","ARG_OF_PERICENTER":"41.7145","FILE":"3295363","TIME_SYSTEM":"UTC","RA_OF_ASC_NODE":"36.1486","REF_FRAME":"TEME","MEAN_ELEMENT_THEORY":"SGP4","OBJECT_NAME":"STARLINK-3326","DECAY_DATE":null}];
